ONEWEB-0156             
1 48052U 21025L   25275.71406812  .00000269  00000+0  70279-3 0  9993
2 48052  87.9050  11.3641 0001998 100.4190 259.7164 13.13468241219771
ONEWEB-0161             
1 48053U 21025M   25275.68866238 -.00000191  00000+0 -55750-3 0  9995
2 48053  87.9049  11.3883 0002044 101.5560 258.5799 13.13468615219703
ONEWEB-0158             
1 48054U 21025N   25275.80039957  .00000344  00000+0  90620-3 0  9993
2 48054  87.9054  11.3464 0001529 104.5253 255.6045 13.13468380219840
ONEWEB-0157             
1 48055U 21025P   25275.67342953 -.00000219  00000+0 -63527-3 0  9991
2 48055  87.9053  11.3790 0002215 105.2899 254.8475 13.13468094219760
ONEWEB-0162             
1 48056U 21025Q   25275.80196257  .00000336  00000+0  88439-3 0  9998
2 48056  87.9055  11.3537 0001891 100.6353 259.4989 13.13468963219750
ONEWEB-0155             
1 48057U 21025R   25275.80886169  .00000213  00000+0  54746-3 0  9995
2 48057  87.9051  11.3589 0001889 107.0405 253.0931 13.13468140219899
ONEWEB-0149             
1 48058U 21025S   25275.67850377 -.00000270  00000+0 -77385-3 0  9992
2 48058  87.9049  11.3786 0001918  94.9551 265.1797 13.13468076219684
ONEWEB-0148             
1 48059U 21025T   25275.71744991  .00000392  00000+0  10381-2 0  9997
2 48059  87.9046  11.3952 0002349  90.1143 270.0256 13.13469537219814
ONEWEB-0160             
1 48060U 21025U   25275.81055099  .00000148  00000+0  37039-3 0  9993
2 48060  87.9047  11.3740 0001058  91.1006 269.0245 13.13468133219779
ONEWEB-0163             
1 48061U 21025V   25275.79531790  .00000400  00000+0  10591-2 0  9992
2 48061  87.9049  11.3583 0002158 104.6992 255.4377 13.13468526219897
ONEWEB-0159             
1 48062U 21025W   25275.71068699 -.00000642  00000+0 -17925-2 0  9996
2 48062  87.9049  11.3577 0002049 100.4176 259.7184 13.13475100219808
ONEWEB-0164             
1 48063U 21025X   25275.69205385 -.00000120  00000+0 -36359-3 0  9993
2 48063  87.9052  11.3698 0001749 101.7228 258.4098 13.13468851219787
ONEWEB-0167             
1 48064U 21025Y   25275.79617083  .00000407  00000+0  10799-2 0  9992
2 48064  87.9043  11.3822 0002157 121.2536 238.8804 13.13469774219782
ONEWEB-0166             
1 48065U 21025Z   25275.81902484 -.00000044  00000+0 -15604-3 0  9998
2 48065  87.9050  11.3287 0001966  96.9633 263.1720 13.13470380219861
ONEWEB-0151             
1 48066U 21025AA  25275.82070583 -.00000082  00000+0 -25822-3 0  9991
2 48066  87.9052  11.3536 0001791 105.5361 254.5966 13.13468238219801
ONEWEB-0170             
1 48067U 21025AB  25275.67682449 -.00000262  00000+0 -75235-3 0  9998
2 48067  87.9055  11.3888 0001414 111.1575 248.9705 13.13470485219745
ONEWEB-0168             
1 48068U 21025AC  25275.81394474  .00000067  00000+0  14909-3 0  9995
2 48068  87.9056  11.3434 0002004 102.1876 257.9478 13.13469300219778
ONEWEB-0173             
1 48069U 21025AD  25275.80547762  .00000271  00000+0  70768-3 0  9997
2 48069  87.9055  11.3531 0002166 109.5667 250.5696 13.13468311220015
ONEWEB-0171             
1 48070U 21025AE  25275.69035462 -.00000148  00000+0 -44143-3 0  9998
2 48070  87.9042  11.4099 0001815 104.7944 255.3386 13.13468546219813
ONEWEB-0172             
1 48071U 21025AF  25275.82240927 -.00000149  00000+0 -44327-3 0  9993
2 48071  87.9055  11.3541 0001872 106.1067 254.0269 13.13469335220729
ONEWEB-0174             
1 48072U 21025AG  25275.80378537  .00000297  00000+0  77843-3 0  9992
2 48072  87.9050  11.3687 0001969  98.7454 261.3898 13.13468770220045
ONEWEB-0175             
1 48073U 21025AH  25275.68188748 -.00000294  00000+0 -84013-3 0  9998
2 48073  87.9050  11.3580 0001685 111.1531 248.9778 13.13468218219682
ONEWEB-0177             
1 48074U 21025AJ  25275.69374825 -.00000170  00000+0 -50174-3 0  9997
2 48074  87.9055  11.3733 0002003 101.3981 258.7373 13.13469632219875
ONEWEB-0178             
1 48075U 21025AK  25275.71250812  .00000288  00000+0  75263-3 0  9994
2 48075  87.9050  11.4155 0001942 109.8563 250.2776 13.13469484219925
ONEWEB-0108             
1 48076U 21025AL  25275.82409134 -.00000226  00000+0 -65292-3 0  9995
2 48076  87.9053  11.3389 0001772  93.7139 266.4193 13.13467758219865
ONEWEB-0169             
1 48077U 21025AM  25275.70390552  .00000124  00000+0  30487-3 0  9999
2 48077  87.9049  11.3859 0001791  94.1299 266.0035 13.13470033218507
ONEWEB-0176             
1 48210U 21031A   25275.67252536 -.00000217  00000+0 -61975-3 0  9991
2 48210  87.9062 340.9877 0001901 103.6730 256.4612 13.14502631214489
ONEWEB-0184             
1 48211U 21031B   25275.72168732  .00000119  00000+0  28532-3 0  9993
2 48211  87.9074 340.9515 0001916 126.2034 233.9274 13.14502596214468
ONEWEB-0179             
1 48212U 21031C   25275.69233054 -.00000294  00000+0 -82745-3 0  9992
2 48212  87.9064 340.9715 0002004  98.4339 261.7018 13.14501964214505
ONEWEB-0180             
1 48213U 21031D   25275.72484924  .00000067  00000+0  14548-3 0  9993
2 48213  87.9075 340.9567 0002165 104.2255 255.9115 13.14500893214394
ONEWEB-0218             
1 48214U 21031E   25275.67092708 -.00000195  00000+0 -56164-3 0  9997
2 48214  87.9073 340.9681 0002184 125.0991 235.0344 13.14500754214545
ONEWEB-0209             
1 48215U 21031F   25275.73594842 -.00000078  00000+0 -24408-3 0  9997
2 48215  87.9069 340.9976 0002134  98.9450 261.1921 13.14501127214558
ONEWEB-0198             
1 48216U 21031G   25275.72022765  .00000222  00000+0  56433-3 0  9999
2 48216  87.9060 340.9996 0002217 108.8561 251.2810 13.14501955214666
ONEWEB-0189             
1 48217U 21031H   25275.65666541 -.00000028  00000+0 -11100-3 0  9996
2 48217  87.9061 340.9853 0002159 108.2376 251.8989 13.14501600214393
ONEWEB-0196             
1 48218U 21031J   25275.71057927  .00000212  00000+0  53629-3 0  9991
2 48218  87.9065 340.9904 0002042 101.7893 258.3466 13.14501155214407
ONEWEB-0183             
1 48219U 21031K   25275.68520176 -.00000123  00000+0 -36746-3 0  9993
2 48219  87.9057 341.0042 0002003  93.5794 266.5565 13.14501061214495
ONEWEB-0185             
1 48220U 21031L   25275.71137365  .00000227  00000+0  57790-3 0  9998
2 48220  87.9063 340.9661 0002297  95.6315 264.5077 13.14502613214429
ONEWEB-0187             
1 48221U 21031M   25275.69142279 -.00000053  00000+0 -17794-3 0  9995
2 48221  87.9064 341.0166 0002165 100.2028 259.9346 13.14502429214434
ONEWEB-0192             
1 48222U 21031N   25275.73753099 -.00000166  00000+0 -48178-3 0  9994
2 48222  87.9066 341.0002 0001931 102.0845 258.0501 13.14500680214354
ONEWEB-0219             
1 48223U 21031P   25275.71692049  .00000208  00000+0  52530-3 0  9992
2 48223  87.9065 340.9771 0002174  98.0876 262.0501 13.14500635214550
ONEWEB-0202             
1 48224U 21031Q   25275.69789236  .00000071  00000+0  15830-3 0  9995
2 48224  87.9062 340.9952 0002280 118.1133 242.0228 13.14501305214534
ONEWEB-0204             
1 48225U 21031R   25275.73198021  .00000005  00000+0 -20183-4 0  9993
2 48225  87.9061 340.9773 0001944  89.7636 270.3716 13.14501059214433
ONEWEB-0205             
1 48226U 21031S   25275.70740879  .00000214  00000+0  54147-3 0  9992
2 48226  87.9063 340.9740 0002126  99.0484 261.0887 13.14501113214446
ONEWEB-0206             
1 48227U 21031T   25275.68044680 -.00000151  00000+0 -44138-3 0  9998
2 48227  87.9068 340.9635 0001582 100.6705 259.4603 13.14502543214394
ONEWEB-0182             
1 48228U 21031U   25275.44733229 -.00000196  00000+0 -56308-3 0  9998
2 48228  87.9056 341.0514 0001971  92.2649 267.8707 13.14501272214571
ONEWEB-0186             
1 48229U 21031V   25275.68678088 -.00000077  00000+0 -24083-3 0  9999
2 48229  87.9070 340.9685 0002026  99.8961 260.2397 13.14500670214558
ONEWEB-0181             
1 48230U 21031W   25275.66459009 -.00000187  00000+0 -53958-3 0  9994
2 48230  87.9054 341.0397 0001998 103.1216 257.0137 13.14501048214403
ONEWEB-0188             
1 48231U 21031X   25275.70264729  .00000078  00000+0  17723-3 0  9990
2 48231  87.9058 341.0270 0001935  98.2908 261.8441 13.14502401214316
ONEWEB-0220             
1 48232U 21031Y   25275.66618337 -.00000207  00000+0 -59345-3 0  9996
2 48232  87.9070 340.9735 0002134  97.5858 262.5515 13.14502588214577
ONEWEB-0165             
1 48233U 21031Z   25275.69471882  .00000065  00000+0  14091-3 0  9991
2 48233  87.9048 341.0054 0002056 101.1856 258.9505 13.14501208214534
ONEWEB-0199             
1 48234U 21031AA  25275.67886048 -.00000197  00000+0 -56603-3 0  9997
2 48234  87.9060 340.9762 0001732  98.7445 261.3881 13.14502262214433
ONEWEB-0203             
1 48235U 21031AB  25275.66934367 -.00000176  00000+0 -51048-3 0  9990
2 48235  87.9059 340.9797 0001766 106.8828 253.2496 13.14500943214440
ONEWEB-0197             
1 48236U 21031AC  25275.71996318  .00000195  00000+0  49268-3 0  9991
2 48236  87.9061 340.9679 0002003  89.1646 270.9713 13.14502471214366
ONEWEB-0194             
1 48237U 21031AD  25275.69948003  .00000029  00000+0  43644-4 0  9996
2 48237  87.9067 340.9872 0001638 100.4610 259.6705 13.14501329214534
ONEWEB-0193             
1 48238U 21031AE  25275.71533338  .00000230  00000+0  58653-3 0  9990
2 48238  87.9054 340.9829 0001434  98.8794 261.2498 13.14501015214484
ONEWEB-0191             
1 48239U 21031AF  25275.72643860  .00000094  00000+0  21937-3 0  9997
2 48239  87.9075 340.9616 0001851  97.4788 262.6552 13.14502267214344
ONEWEB-0195             
1 48240U 21031AG  25275.70345101  .00000166  00000+0  41349-3 0  9993
2 48240  87.9067 340.9628 0002192 107.2516 252.8854 13.14502600214323
ONEWEB-0201             
1 48241U 21031AH  25275.69168855  .00000011  00000+0 -51988-5 0  9993
2 48241  87.9061 341.0143 0002192  96.0155 264.1224 13.14501481214554
ONEWEB-0207             
1 48242U 21031AJ  25275.67171759 -.00000173  00000+0 -50207-3 0  9990
2 48242  87.9061 340.9748 0002068  94.4210 265.7156 13.14500659214467
